STARLINK-4187           
1 52850U 22062W   26068.28743154 -.00001157  00000+0 -54621-4 0  9995
2 52850  53.2184  36.2847 0001437  89.1460 270.9696 15.08839208205727
GRBBETA                 
1 60237U 24128C   26068.70717138  .00006748  00000+0  46404-3 0  9996
2 60237  61.9904 205.0764 0051339 114.1677 246.4795 15.05794613 91289
